COMMENT,ORIGINATOR,NORAD_CAT_ID,OBJECT_NAME,OBJECT_TYPE,CLASSIFICATION_TYPE,INTLDES,EPOCH,EPOCH_MICROSECONDS,MEAN_MOTION,ECCENTRICITY,INCLINATION,RA_OF_ASC_NODE,ARG_OF_PERICENTER,MEAN_ANOMALY,EPHEMERIS_TYPE,ELEMENT_SET_NO,REV_AT_EPOCH,BSTAR,MEAN_MOTION_DOT,MEAN_MOTION_DDOT,FILE,TLE_LINE0,TLE_LINE1,TLE_LINE2,OBJECT_ID,OBJECT_NUMBER,SEMIMAJOR_AXIS,PERIOD,APOGEE,PERIGEE,DECAYED
"GENERATED VIA SPACETRACK.ORG API","18 SPCS","55102","SPACEBEE-157","PAYLOAD","U","23001CX","2024-03-27 17:15:40","479264","15.40085024","0.0010023","97.4285","153.2573","86.4187","273.8205","0","999","6857","0.0014404","0.00058001","0","4248174","0 SPACEBEE-157","1 55102U 23001CX  24087.71921851  .00058001  00000-0  14404-2 0  9993","2 55102  97.4285 153.2573 0010023  86.4187 273.8205 15.40085024 68578","2023-001CX","55102","6823.995","93.501","452.700","439.020","0"
"GENERATED VIA SPACETRACK.ORG API","18 SPCS","55102","SPACEBEE-157","PAYLOAD","U","23001CX","2024-03-27 17:15:40","479264","15.40085024","0.0010023","97.4285","153.2573","86.4187","273.8205","0","999","6857","0.0014404","0.00058001","0","4248304","0 SPACEBEE-157","1 55102U 23001CX  24087.71921851  .00058001  00000-0  14404-2 0  9993","2 55102  97.4285 153.2573 0010023  86.4187 273.8205 15.40085024 68578","2023-001CX","55102","6823.995","93.501","452.700","439.020","0"
"GENERATED VIA SPACETRACK.ORG API","18 SPCS","55102","SPACEBEE-157","PAYLOAD","U","23001CX","2024-03-28 04:10:35","571648","15.40153222","0.0009954","97.4283","153.7187","85.2964","274.9419","0","999","6864","0.0014632","0.00059059","0","4248453","0 SPACEBEE-157","1 55102U 23001CX  24088.17402282  .00059059  00000-0  14632-2 0  9993","2 55102  97.4283 153.7187 0009954  85.2964 274.9419 15.40153222 68646","2023-001CX","55102","6823.794","93.497","452.451","438.866","0"
"GENERATED VIA SPACETRACK.ORG API","18 SPCS","55102","SPACEBEE-157","PAYLOAD","U","23001CX","2024-03-28 04:10:35","571648","15.40153222","0.0009954","97.4283","153.7187","85.2964","274.9419","0","999","6864","0.0014632","0.00059059","0","4249182","0 SPACEBEE-157","1 55102U 23001CX  24088.17402282  .00059059  00000-0  14632-2 0  9993","2 55102  97.4283 153.7187 0009954  85.2964 274.9419 15.40153222 68646","2023-001CX","55102","6823.794","93.497","452.451","438.866","0"
"GENERATED VIA SPACETRACK.ORG API","18 SPCS","55102","SPACEBEE-157","PAYLOAD","U","23001CX","2024-03-29 09:48:06","338880","15.4030742","0.0009768","97.4279","154.9727","80.4465","279.7885","0","999","6883","0.0015837","0.00064294","0","4250165","0 SPACEBEE-157","1 55102U 23001CX  24089.40840670  .00064294  00000-0  15837-2 0  9992","2 55102  97.4279 154.9727 0009768  80.4465 279.7885 15.40307420 68832","2023-001CX","55102","6823.338","93.488","451.868","438.538","0"
"GENERATED VIA SPACETRACK.ORG API","18 SPCS","55102","SPACEBEE-157","PAYLOAD","U","23001CX","2024-03-29 09:48:06","338880","15.4030742","0.0009768","97.4279","154.9727","80.4465","279.7885","0","999","6883","0.0015837","0.00064294","0","4250244","0 SPACEBEE-157","1 55102U 23001CX  24089.40840670  .00064294  00000-0  15837-2 0  9992","2 55102  97.4279 154.9727 0009768  80.4465 279.7885 15.40307420 68832","2023-001CX","55102","6823.338","93.488","451.868","438.538","0"
"GENERATED VIA SPACETRACK.ORG API","18 SPCS","55102","SPACEBEE-157","PAYLOAD","U","23001CX","2024-03-30 02:57:06","507072","15.40399265","0.0009683","97.4277","155.6983","78.2628","281.9704","0","999","6894","0.0014023","0.00057038","0","4253807","0 SPACEBEE-157","1 55102U 23001CX  24090.12299198  .00057038  00000-0  14023-2 0  9990","2 55102  97.4277 155.6983 0009683  78.2628 281.9704 15.40399265 68949","2023-001CX","55102","6823.067","93.482","451.539","438.325","0"
"GENERATED VIA SPACETRACK.ORG API","18 SPCS","55102","SPACEBEE-157","PAYLOAD","U","23001CX","2024-03-30 21:39:35","635392","15.40485426","0.0009691","97.4271","156.4902","75.9924","284.2399","0","999","6906","0.0016238","0.00066328","0","4254317","0 SPACEBEE-157","1 55102U 23001CX  24090.90249578  .00066328  00000-0  16238-2 0  9995","2 55102  97.4271 156.4902 0009691  75.9924 284.2399 15.40485426 69060","2023-001CX","55102","6822.813","93.477","451.290","438.066","0"
"GENERATED VIA SPACETRACK.ORG API","18 SPCS","55102","SPACEBEE-157","PAYLOAD","U","23001CX","2024-03-31 03:53:44","467872","15.40522744","0.0009634","97.4272","156.7542","75.1801","285.0511","0","999","6910","0.001853","0.00075886","0","4254714","0 SPACEBEE-157","1 55102U 23001CX  24091.16232023  .00075886  00000-0  18530-2 0  9997","2 55102  97.4272 156.7542 0009634  75.1801 285.0511 15.40522744 69102","2023-001CX","55102","6822.702","93.475","451.140","437.994","0"
"GENERATED VIA SPACETRACK.ORG API","18 SPCS","55102","SPACEBEE-157","PAYLOAD","U","23001CX","2024-03-31 03:53:44","467872","15.40522744","0.0009634","97.4272","156.7542","75.1801","285.0511","0","999","6910","0.001853","0.00075886","0","4255611","0 SPACEBEE-157","1 55102U 23001CX  24091.16232023  .00075886  00000-0  18530-2 0  9997","2 55102  97.4272 156.7542 0009634  75.1801 285.0511 15.40522744 69102","2023-001CX","55102","6822.702","93.475","451.140","437.994","0"
"GENERATED VIA SPACETRACK.ORG API","18 SPCS","55102","SPACEBEE-157","PAYLOAD","U","23001CX","2024-03-31 17:55:32","452032","15.40593016","0.0009504","97.4269","157.3478","72.0659","288.1623","0","999","6919","0.0014727","0.00060311","0","4256006","0 SPACEBEE-157","1 55102U 23001CX  24091.74690338  .00060311  00000-0  14727-2 0  9999","2 55102  97.4269 157.3478 0009504  72.0659 288.1623 15.40593016 69193","2023-001CX","55102","6822.495","93.471","450.844","437.876","0"
"GENERATED VIA SPACETRACK.ORG API","18 SPCS","55102","SPACEBEE-157","PAYLOAD","U","23001CX","2024-03-31 17:55:32","452032","15.40593016","0.0009504","97.4269","157.3478","72.0659","288.1623","0","999","6919","0.0014727","0.00060311","0","4256238","0 SPACEBEE-157","1 55102U 23001CX  24091.74690338  .00060311  00000-0  14727-2 0  9999","2 55102  97.4269 157.3478 0009504  72.0659 288.1623 15.40593016 69193","2023-001CX","55102","6822.495","93.471","450.844","437.876","0"
"GENERATED VIA SPACETRACK.ORG API","18 SPCS","55102","SPACEBEE-157","PAYLOAD","U","23001CX","2024-04-01 11:04:21","414144","15.40674776","0.0009504","97.427","158.074","69.8256","290.4012","0","999","6930","0.0014606","0.00059974","0","4257565","0 SPACEBEE-157","1 55102U 23001CX  24092.46135896  .00059974  00000-0  14606-2 0  9991","2 55102  97.4270 158.0740 0009504  69.8256 290.4012 15.40674776 69306","2023-001CX","55102","6822.254","93.466","450.602","437.635","0"
"GENERATED VIA SPACETRACK.ORG API","18 SPCS","55102","SPACEBEE-157","PAYLOAD","U","23001CX","2024-04-02 02:39:35","775936","15.40751344","0.0009287","97.4273","158.7341","68.6747","291.549","0","999","6940","0.001227","0.0005043","0","4258587","0 SPACEBEE-157","1 55102U 23001CX  24093.11083074  .00050430  00000-0  12270-2 0  9997","2 55102  97.4273 158.7341 0009287  68.6747 291.5490 15.40751344 69403","2023-001CX","55102","6822.028","93.461","450.228","437.557","0"
"GENERATED VIA SPACETRACK.ORG API","18 SPCS","55102","SPACEBEE-157","PAYLOAD","U","23001CX","2024-04-02 04:13:07","71456","15.40758553","0.000929","97.4273","158.8001","68.456","291.7676","0","999","6941","0.0011983","0.00049253","0","4259431","0 SPACEBEE-157","1 55102U 23001CX  24093.17577629  .00049253  00000-0  11983-2 0  9998","2 55102  97.4273 158.8001 0009290  68.4560 291.7676 15.40758553 69410","2023-001CX","55102","6822.006","93.460","450.209","437.534","0"
"GENERATED VIA SPACETRACK.ORG API","18 SPCS","55102","SPACEBEE-157","PAYLOAD","U","23001CX","2024-04-02 16:41:16","579392","15.40807025","0.0009239","97.4271","159.3285","66.2728","293.9486","0","999","6949","0.0011865","0.00048842","0","4260070","0 SPACEBEE-157","1 55102U 23001CX  24093.69533078  .00048842  00000-0  11865-2 0  9997","2 55102  97.4271 159.3285 0009239  66.2728 293.9486 15.40807025 69493","2023-001CX","55102","6821.863","93.458","450.031","437.426","0"
"GENERATED VIA SPACETRACK.ORG API","18 SPCS","55102","SPACEBEE-157","PAYLOAD","U","23001CX","2024-04-03 03:35:53","659104","15.40851347","0.0009134","97.4272","159.7901","65.1791","295.0404","0","999","6956","0.0010876","0.00044804","0","4260378","0 SPACEBEE-157","1 55102U 23001CX  24094.14992661  .00044804  00000-0  10876-2 0  9990","2 55102  97.4272 159.7901 0009134  65.1791 295.0404 15.40851347 69562","2023-001CX","55102","6821.732","93.455","449.828","437.366","0"
"GENERATED VIA SPACETRACK.ORG API","18 SPCS","55102","SPACEBEE-157","PAYLOAD","U","23001CX","2024-04-03 09:49:57","222048","15.40873696","0.000915","97.4271","160.0546","64.1178","296.101","0","999","6960","0.0011671","0.00048142","0","4261282","0 SPACEBEE-157","1 55102U 23001CX  24094.40969007  .00048142  00000-0  11671-2 0  9990","2 55102  97.4271 160.0546 0009150  64.1178 296.1010 15.40873696 69608","2023-001CX","55102","6821.666","93.453","449.773","437.290","0"
"GENERATED VIA SPACETRACK.ORG API","18 SPCS","55102","SPACEBEE-157","PAYLOAD","U","23001CX","2024-04-03 22:18:03","412224","15.40917378","0.0009122","97.4271","160.5825","62.2588","297.9583","0","999","6968","0.0010369","0.00042794","0","4261881","0 SPACEBEE-157","1 55102U 23001CX  24094.92920616  .00042794  00000-0  10369-2 0  9990","2 55102  97.4271 160.5825 0009122  62.2588 297.9583 15.40917378 69684","2023-001CX","55102","6821.538","93.451","449.625","437.180","0"
"GENERATED VIA SPACETRACK.ORG API","18 SPCS","55102","SPACEBEE-157","PAYLOAD","U","23001CX","2024-04-04 10:46:08","321088","15.40957994","0.0009093","97.4273","161.1105","60.5946","299.6207","0","999","6976","0.00091686","0.00037856","0","4262947","0 SPACEBEE-157","1 55102U 23001CX  24095.44870742  .00037856  00000-0  91686-3 0  9997","2 55102  97.4273 161.1105 0009093  60.5946 299.6207 15.40957994 69769","2023-001CX","55102","6821.418","93.448","449.485","437.080","0"
